{"type": "FeatureCollection", "features": [ {"type": "Feature", "properties": {"norad_id": 29999, "name": "FENGYUN 1C DEB", "group": "fengyun-1c-debris", "lat": -48.80236402198146, "lon": -20.848260869362658, "alt_km": 968.2159396385587, "timestamp": "2025-12-10T21:43:22.360954+00:00", "meta": {"OBJECT_NAME": "FENGYUN 1C DEB", "OBJECT_ID": "1999-025LZ", "EPOCH": "2025-12-10T10:49:34.099968", "MEAN_MOTION": 14.2012927, "ECCENTRICITY": 0.0189488, "INCLINATION": 98.5762, "RA_OF_ASC_NODE": 328.7843, "ARG_OF_PERICENTER": 133.1542, "MEAN_ANOMALY": 17.4246, "EPHEMERIS_TYPE": 0, "CLASSIFICATION_TYPE": "U", "NORAD_CAT_ID": 29999, "ELEMENT_SET_NO": 999, "REV_AT_EPOCH": 97691, "BSTAR": 0.00038754498, "MEAN_MOTION_DOT": 9.47e-06, "MEAN_MOTION_DDOT": 0}, "tle": {"line1": "1 29999U 99025LZ  25344.45108912  .00000947  00000+0  38754-3 0  9990", "line2": "2 29999  98.5762 328.7843 0189488 133.1542  17.4246 14.20129270976913"}}, "geometry": {"type": "Point", "coordinates": [-20.848260869362658, -48.80236402198146]}}, {"type": "Feature", "properties": {"norad_id": 30001, "name": "FENGYUN 1C DEB", "group": "fengyun-1c-debris", "lat": 42.58044372086432, "lon": -111.79311925029504, "alt_km": 736.7855356570417, "timestamp": "2025-12-10T21:43:22.360965+00:00", "meta": {"OBJECT_NAME": "FENGYUN 1C DEB", "OBJECT_ID": "1999-025MA", "EPOCH": "2025-12-10T11:08:19.394304", "MEAN_MOTION": 14.38521096, "ECCENTRICITY": 0.00382266, "INCLINATION": 98.9589, "RA_OF_ASC_NODE": 59.4119, "ARG_OF_PERICENTER": 105.3706, "MEAN_ANOMALY": 268.5392, "EPHEMERIS_TYPE": 0, "CLASSIFICATION_TYPE": "U", "NORAD_CAT_ID": 30001, "ELEMENT_SET_NO": 999, "REV_AT_EPOCH": 97399, "BSTAR": 0.0040822057, "MEAN_MOTION_DOT": 0.00012559, "MEAN_MOTION_DDOT": 0}, "tle": {"line1": "1 30001U 99025MA  25344.46411336  .00012559  00000+0  40822-2 0  9994", "line2": "2 30001  98.9589  59.4119 0038226 105.3706 268.5392 14.38521096973997"}}, "geometry": {"type": "Point", "coordinates": [-111.79311925029504, 42.58044372086432]}}, {"type": "Feature", "properties": {"norad_id": 30003, "name": "FENGYUN 1C DEB", "group": "fengyun-1c-debris", "lat": -64.74225677026875, "lon": -19.36824024024048, "alt_km": 1054.104273846012, "timestamp": "2025-12-10T21:43:22.360975+00:00", "meta": {"OBJECT_NAME": "FENGYUN 1C DEB", "OBJECT_ID": "1999-025MC", "EPOCH": "2025-12-10T12:11:59.726688", "MEAN_MOTION": 13.85621323, "ECCENTRICITY": 0.01433454, "INCLINATION": 99.5764, "RA_OF_ASC_NODE": 319.2601, "ARG_OF_PERICENTER": 125.7412, "MEAN_ANOMALY": 349.2375, "EPHEMERIS_TYPE": 0, "CLASSIFICATION_TYPE": "U", "NORAD_CAT_ID": 30003, "ELEMENT_SET_NO": 999, "REV_AT_EPOCH": 95457, "BSTAR": 0.00040293113, "MEAN_MOTION_DOT": 4.53e-06, "MEAN_MOTION_DDOT": 0}, "tle": {"line1": "1 30003U 99025MC  25344.50833017  .00000453  00000+0  40293-3 0  9998", "line2": "2 30003  99.5764 319.2601 0143345 125.7412 349.2375 13.85621323954579"}}, "geometry": {"type": "Point", "coordinates": [-19.36824024024048, -64.74225677026875]}}, {"type": "Feature", "properties": {"norad_id": 30004, "name": "FENGYUN 1C DEB", "group": "fengyun-1c-debris", "lat": -75.17294566286215, "lon": -156.1764278613393, "alt_km": 831.3502539252804, "timestamp": "2025-12-10T21:43:22.360986+00:00", "meta": {"OBJECT_NAME": "FENGYUN 1C DEB", "OBJECT_ID": "1999-025MD", "EPOCH": "2025-12-10T12:12:48.407040", "MEAN_MOTION": 14.17049981, "ECCENTRICITY": 0.00386516, "INCLINATION": 99.2235, "RA_OF_ASC_NODE": 165.5465, "ARG_OF_PERICENTER": 349.161, "MEAN_ANOMALY": 72.7415, "EPHEMERIS_TYPE": 0, "CLASSIFICATION_TYPE": "U", "NORAD_CAT_ID": 30004, "ELEMENT_SET_NO": 999, "REV_AT_EPOCH": 97275, "BSTAR": 0.0010620826, "MEAN_MOTION_DOT": 2.105e-05, "MEAN_MOTION_DDOT": 0}, "tle": {"line1": "1 30004U 99025MD  25344.50889360  .00002105  00000+0  10621-2 0  9998", "line2": "2 30004  99.2235 165.5465 0038651 349.1610  72.7415 14.17049981972758"}}, "geometry": {"type": "Point", "coordinates": [-156.1764278613393, -75.17294566286215]}}, {"type": "Feature", "properties": {"norad_id": 30005, "name": "FENGYUN 1C DEB", "group": "fengyun-1c-debris", "lat": -6.348804982789285, "lon": 125.92314528382755, "alt_km": 1051.2112595456656, "timestamp": "2025-12-10T21:43:22.360996+00:00", "meta": {"OBJECT_NAME": "FENGYUN 1C DEB", "OBJECT_ID": "1999-025ME", "EPOCH": "2025-12-10T10:11:18.923712", "MEAN_MOTION": 13.5220875, "ECCENTRICITY": 0.03466929, "INCLINATION": 99.302, "RA_OF_ASC_NODE": 306.5165, "ARG_OF_PERICENTER": 99.2207, "MEAN_ANOMALY": 264.831, "EPHEMERIS_TYPE": 0, "CLASSIFICATION_TYPE": "U", "NORAD_CAT_ID": 30005, "ELEMENT_SET_NO": 999, "REV_AT_EPOCH": 92915, "BSTAR": 0.0015863148, "MEAN_MOTION_DOT": 1.487e-05, "MEAN_MOTION_DDOT": 0}, "tle": {"line1": "1 30005U 99025ME  25344.42452458  .00001487  00000+0  15863-2 0  9999", "line2": "2 30005  99.3020 306.5165 0346692  99.2207 264.8310 13.52208750929151"}}, "geometry": {"type": "Point", "coordinates": [125.92314528382755, -6.348804982789285]}}, {"type": "Feature", "properties": {"norad_id": 30007, "name": "FENGYUN 1C DEB", "group": "fengyun-1c-debris", "lat": -74.02438087556953, "lon": -79.45112018381364, "alt_km": 819.6888380745095, "timestamp": "2025-12-10T21:43:22.361006+00:00", "meta": {"OBJECT_NAME": "FENGYUN 1C DEB", "OBJECT_ID": "1999-025MG", "EPOCH": "2025-12-10T05:48:28.664352", "MEAN_MOTION": 14.25382586, "ECCENTRICITY": 0.0065734, "INCLINATION": 99.1774, "RA_OF_ASC_NODE": 245.4744, "ARG_OF_PERICENTER": 21.7988, "MEAN_ANOMALY": 101.2709, "EPHEMERIS_TYPE": 0, "CLASSIFICATION_TYPE": "U", "NORAD_CAT_ID": 30007, "ELEMENT_SET_NO": 999, "REV_AT_EPOCH": 97320, "BSTAR": 0.0028154, "MEAN_MOTION_DOT": 6.748e-05, "MEAN_MOTION_DDOT": 0}, "tle": {"line1": "1 30007U 99025MG  25344.24199843  .00006748  00000+0  28154-2 0  9999", "line2": "2 30007  99.1774 245.4744 0065734  21.7988 101.2709 14.25382586973204"}}, "geometry": {"type": "Point", "coordinates": [-79.45112018381364, -74.02438087556953]}}, {"type": "Feature", "properties": {"norad_id": 30008, "name": "FENGYUN 1C DEB", "group": "fengyun-1c-debris", "lat": -80.58264220601424, "lon": 25.55162987158414, "alt_km": 672.3482171237029, "timestamp": "2025-12-10T21:43:22.361030+00:00", "meta": {"OBJECT_NAME": "FENGYUN 1C DEB", "OBJECT_ID": "1999-025MH", "EPOCH": "2025-12-10T09:34:10.246080", "MEAN_MOTION": 14.66210979, "ECCENTRICITY": 0.00387162, "INCLINATION": 99.3691, "RA_OF_ASC_NODE": 300.4455, "ARG_OF_PERICENTER": 199.4536, "MEAN_ANOMALY": 279.6324, "EPHEMERIS_TYPE": 0, "CLASSIFICATION_TYPE": "U", "NORAD_CAT_ID": 30008, "ELEMENT_SET_NO": 999, "REV_AT_EPOCH": 99025, "BSTAR": 0.0032609345, "MEAN_MOTION_DOT": 0.00018137, "MEAN_MOTION_DDOT": 0}, "tle": {"line1": "1 30008U 99025MH  25344.39872970  .00018137  00000+0  32609-2 0  9990", "line2": "2 30008  99.3691 300.4455 0038716 199.4536 279.6324 14.66210979990256"}}, "geometry": {"type": "Point", "coordinates": [25.55162987158414, -80.58264220601424]}}, {"type": "Feature", "properties": {"norad_id": 30009, "name": "FENGYUN 1C DEB", "group": "fengyun-1c-debris", "lat": 15.614853199078041, "lon": 37.297256021441875, "alt_km": 839.794992582204, "timestamp": "2025-12-10T21:43:22.361042+00:00", "meta": {"OBJECT_NAME": "FENGYUN 1C DEB", "OBJECT_ID": "1999-025MJ", "EPOCH": "2025-12-10T14:48:41.293440", "MEAN_MOTION": 14.04847899, "ECCENTRICITY": 0.0063773, "INCLINATION": 99.0149, "RA_OF_ASC_NODE": 39.5542, "ARG_OF_PERICENTER": 341.5179, "MEAN_ANOMALY": 18.3672, "EPHEMERIS_TYPE": 0, "CLASSIFICATION_TYPE": "U", "NORAD_CAT_ID": 30009, "ELEMENT_SET_NO": 999, "REV_AT_EPOCH": 96453, "BSTAR": 0.00090127482, "MEAN_MOTION_DOT": 1.429e-05, "MEAN_MOTION_DDOT": 0}, "tle": {"line1": "1 30009U 99025MJ  25344.61714460  .00001429  00000+0  90127-3 0  9991", "line2": "2 30009  99.0149  39.5542 0063773 341.5179  18.3672 14.04847899964538"}}, "geometry": {"type": "Point", "coordinates": [37.297256021441875, 15.614853199078041]}}, {"type": "Feature", "properties": {"norad_id": 30010, "name": "FENGYUN 1C DEB", "group": "fengyun-1c-debris", "lat": 71.25335245691139, "lon": 148.92365814881907, "alt_km": 842.1063712405985, "timestamp": "2025-12-10T21:43:22.361053+00:00", "meta": {"OBJECT_NAME": "FENGYUN 1C DEB", "OBJECT_ID": "1999-025MK", "EPOCH": "2025-12-10T11:33:24.939360", "MEAN_MOTION": 14.24985062, "ECCENTRICITY": 0.00725941, "INCLINATION": 99.0699, "RA_OF_ASC_NODE": 176.5634, "ARG_OF_PERICENTER": 215.915, "MEAN_ANOMALY": 206.4337, "EPHEMERIS_TYPE": 0, "CLASSIFICATION_TYPE": "U", "NORAD_CAT_ID": 30010, "ELEMENT_SET_NO": 999, "REV_AT_EPOCH": 98228, "BSTAR": 0.00022165905, "MEAN_MOTION_DOT": 4.86e-06, "MEAN_MOTION_DDOT": 0}, "tle": {"line1": "1 30010U 99025MK  25344.48153865  .00000486  00000+0  22166-3 0  9994", "line2": "2 30010  99.0699 176.5634 0072594 215.9150 206.4337 14.24985062982285"}}, "geometry": {"type": "Point", "coordinates": [148.92365814881907, 71.25335245691139]}}, {"type": "Feature", "properties": {"norad_id": 30012, "name": "FENGYUN 1C DEB", "group": "fengyun-1c-debris", "lat": -70.71868708822616, "lon": 66.59745607451084, "alt_km": 1022.7153614671515, "timestamp": "2025-12-10T21:43:22.361064+00:00", "meta": {"OBJECT_NAME": "FENGYUN 1C DEB", "OBJECT_ID": "1999-025MM", "EPOCH": "2025-12-10T10:02:47.372640", "MEAN_MOTION": 13.8576293, "ECCENTRICITY": 0.01370096, "INCLINATION": 99.4646, "RA_OF_ASC_NODE": 37.6273, "ARG_OF_PERICENTER": 151.8266, "MEAN_ANOMALY": 228.1793, "EPHEMERIS_TYPE": 0, "CLASSIFICATION_TYPE": "U", "NORAD_CAT_ID": 30012, "ELEMENT_SET_NO": 999, "REV_AT_EPOCH": 95516, "BSTAR": 0.00042527635, "MEAN_MOTION_DOT": 4.79e-06, "MEAN_MOTION_DDOT": 0}, "tle": {"line1": "1 30012U 99025MM  25344.41860385  .00000479  00000+0  42528-3 0  9997", "line2": "2 30012  99.4646  37.6273 0137009 151.8266 228.1793 13.85762930955165"}}, "geometry": {"type": "Point", "coordinates": [66.59745607451084, -70.71868708822616]}}]}